OBJECT_NAME,OBJECT_ID,EPOCH,MEAN_MOTION,ECCENTRICITY,INCLINATION,RA_OF_ASC_NODE,ARG_OF_PERICENTER,MEAN_ANOMALY,EPHEMERIS_TYPE,CLASSIFICATION_TYPE,NORAD_CAT_ID,ELEMENT_SET_NO,REV_AT_EPOCH,BSTAR,MEAN_MOTION_DOT,MEAN_MOTION_DDOT
STARLINK-30707,2023-148Q,2026-07-15T06:54:18.218304,15.34401472,.00012379,53.1592,149.7986,87.6368,272.4777,0,U,57949,999,15798,.71487716E-4,.204E-4,0
STARLINK-30701,2023-148R,2026-07-15T06:15:03.451968,15.34400649,.00018486,53.1594,150.3211,94.5855,265.5359,0,U,57950,999,15797,-.7168604E-5,-.619E-5,0
STARLINK-30399,2023-148S,2026-07-15T03:34:35.873184,15.34393878,.00013863,53.1596,150.3376,82.0448,278.0712,0,U,57951,999,15796,.17639137E-4,.22E-5,0
STARLINK-30713,2023-148T,2026-07-15T07:24:36.400032,15.34400894,.00012313,53.1596,149.9307,89.9475,270.1669,0,U,57952,999,15798,.14895056E-4,.127E-5,0
STARLINK-30700,2023-148U,2026-07-15T06:44:34.285632,15.30189320,.00012927,53.1602,141.5596,91.1913,268.9236,0,U,57953,999,15809,.61654277E-4,.1467E-4,0
STARLINK-30703,2023-148V,2026-07-15T05:08:15.121824,15.34390792,.00012087,53.1591,139.9757,97.6106,262.5034,0,U,57954,999,15811,.6988732E-4,.1985E-4,0
STARLINK-30702,2023-148W,2026-07-15T06:14:54.081888,15.34397417,.0001283,53.1597,140.2559,90.9248,269.1902,0,U,57955,999,15811,.61306282E-4,.1695E-4,0
STARLINK-30396,2023-151A,2026-07-15T09:27:53.077248,15.27574814,.00012091,43.0017,335.1072,281.2579,78.8137,0,U,57964,999,15529,.496093E-6,-.248E-5,0
STARLINK-30524,2023-151B,2026-07-15T10:52:46.783200,15.27579998,.00014201,43.0030,334.6907,247.0521,113.0181,0,U,57965,999,15530,.61179474E-4,.1422E-4,0
STARLINK-30521,2023-151C,2026-07-15T10:04:39.698688,15.27577331,.00010685,43.0014,334.4347,218.5811,141.4964,0,U,57966,999,15530,.99714246E-4,.2483E-4,0
STARLINK-30528,2023-151D,2026-07-15T08:36:04.669632,15.27565584,.00014191,42.9979,334.8285,168.8620,191.2263,0,U,57967,999,15529,-.11764246E-4,-.586E-5,0
STARLINK-30495,2023-151E,2026-07-15T10:30:34.521120,15.27576181,.00009522,43.0025,334.5674,249.1529,110.9221,0,U,57968,999,15530,.33032569E-4,.647E-5,0
STARLINK-30494,2023-151G,2026-07-15T01:20:39.700320,15.27568710,.00016929,43.0022,191.2548,274.8731,85.1927,0,U,57970,999,15693,.47210981E-4,.1037E-4,0
STARLINK-30498,2023-151H,2026-07-15T10:25:01.243488,15.27577584,.00015658,43.0057,334.5263,272.6203,87.4470,0,U,57971,999,15530,.20440167E-4,.3E-5,0
STARLINK-30505,2023-151J,2026-07-15T10:58:19.661664,15.27590663,.00013561,42.9993,334.6917,223.3664,136.7081,0,U,57972,999,15530,.57174963E-3,.15509E-3,0
STARLINK-30502,2023-151K,2026-07-15T10:19:28.294176,15.27567307,.00011518,43.0016,334.4958,192.4213,167.6610,0,U,57973,999,15530,.94959852E-4,.2351E-4,0
STARLINK-30489,2023-151L,2026-07-15T08:52:43.251456,15.27581153,.00016516,43.0042,334.9115,281.9492,78.1175,0,U,57974,999,15529,.4329907E-4,.929E-5,0
STARLINK-30503,2023-151M,2026-07-15T15:50:01.636224,15.27583232,.00014772,43.0043,333.6212,269.9456,90.1227,0,U,57975,999,15533,.13042733E-3,.3329E-4,0
STARLINK-30512,2023-151N,2026-07-15T10:15:45.568800,15.27574323,.00011331,43.0032,334.4288,273.2083,86.8639,0,U,57976,999,15530,.18010619E-4,.234E-5,0
STARLINK-30509,2023-151P,2026-07-15T10:55:41.127168,15.27577883,.00020604,43.0051,349.1195,261.8393,98.2225,0,U,57977,999,15513,.28089725E-4,.511E-5,0
STARLINK-30511,2023-151Q,2026-07-15T11:04:55.295040,15.27580780,.00035512,43.0108,349.1685,274.2051,85.8395,0,U,57978,999,15513,.29347535E-4,.545E-5,0
STARLINK-30508,2023-151R,2026-07-15T11:10:29.076384,15.27582086,.00012098,43.0029,349.1886,214.8040,145.2732,0,U,57979,999,15513,.16445415E-3,.4266E-4,0
STARLINK-30510,2023-151T,2026-07-15T12:12:28.260288,15.27583568,.00015829,43.0029,352.0603,258.7027,101.3647,0,U,57981,999,15510,.47975322E-4,.1058E-4,0
STARLINK-30507,2023-151U,2026-07-14T12:45:41.695776,15.27549432,.00027795,43.0020,357.6327,291.6607,68.3948,0,U,57982,999,15494,-.2098809E-3,-.6029E-4,0
STARLINK-30515,2023-151V,2026-07-15T10:49:24.775680,15.27583042,.00019465,43.0041,352.4846,252.5008,107.5631,0,U,57983,999,15508,.25598901E-4,.442E-5,0
STARLINK-30516,2023-151W,2026-07-15T10:54:58.105152,15.27581310,.00011103,43.0010,352.5196,248.2332,111.8401,0,U,57984,999,15509,.49574234E-4,.1102E-4,0
STARLINK-30519,2023-151X,2026-07-15T11:17:53.116224,15.27575381,.00014654,43.0038,349.2299,266.9560,93.1124,0,U,57985,999,15507,.65796027E-4,.1549E-4,0
STARLINK-30537,2023-153A,2026-07-15T00:54:51.692256,15.27588296,.00023338,43.0019,67.7845,265.9536,94.1049,0,U,57991,999,15427,.70823664E-4,.1687E-4,0
STARLINK-30534,2023-153B,2026-07-15T00:34:31.205856,15.27576969,.0001063,43.0056,67.6718,257.5883,102.4849,0,U,57992,999,15427,.6992598E-5,-.7E-6,0
STARLINK-30536,2023-153C,2026-07-15T01:00:25.224768,15.27577411,.00014741,43.0051,67.8088,265.3708,94.6976,0,U,57993,999,15437,.6441557E-5,-.85E-6,0
