STARLINK-30707          
1 57949U 23148Q   26196.28771086  .00002040  00000+0  71488-4 0  9992
2 57949  53.1592 149.7986 0001237  87.6368 272.4777 15.34401472157983
STARLINK-30701          
1 57950U 23148R   26196.26045662 -.00000619  00000+0 -71686-5 0  9999
2 57950  53.1594 150.3211 0001848  94.5855 265.5359 15.34400649157975
STARLINK-30399          
1 57951U 23148S   26196.14902631  .00000220  00000+0  17639-4 0  9998
2 57951  53.1596 150.3376 0001386  82.0448 278.0712 15.34393878157963
STARLINK-30713          
1 57952U 23148T   26196.30875463  .00000127  00000+0  14895-4 0  9996
2 57952  53.1596 149.9307 0001231  89.9475 270.1669 15.34400894157980
STARLINK-30700          
1 57953U 23148U   26196.28095238  .00001467  00000+0  61654-4 0  9991
2 57953  53.1602 141.5596 0001292  91.1913 268.9236 15.30189320158098
STARLINK-30703          
1 57954U 23148V   26196.21406391  .00001985  00000+0  69887-4 0  9992
2 57954  53.1591 139.9757 0001208  97.6106 262.5034 15.34390792158118
STARLINK-30702          
1 57955U 23148W   26196.26034817  .00001695  00000+0  61306-4 0  9994
2 57955  53.1597 140.2559 0001283  90.9248 269.1902 15.34397417158114
STARLINK-30396          
1 57964U 23151A   26196.39436432 -.00000248  00000+0  49609-6 0  9999
2 57964  43.0017 335.1072 0001209 281.2579  78.8137 15.27574814155295
STARLINK-30524          
1 57965U 23151B   26196.45331925  .00001422  00000+0  61179-4 0  9996
2 57965  43.0030 334.6907 0001420 247.0521 113.0181 15.27579998155305
STARLINK-30521          
1 57966U 23151C   26196.41990392  .00002483  00000+0  99714-4 0  9996
2 57966  43.0014 334.4347 0001068 218.5811 141.4964 15.27577331155300
STARLINK-30528          
1 57967U 23151D   26196.35838738 -.00000586  00000+0 -11764-4 0  9998
2 57967  42.9979 334.8285 0001419 168.8620 191.2263 15.27565584155299
STARLINK-30495          
1 57968U 23151E   26196.43789955  .00000647  00000+0  33033-4 0  9993
2 57968  43.0025 334.5674 0000952 249.1529 110.9221 15.27576181155304
STARLINK-30494          
1 57970U 23151G   26196.05601505  .00001037  00000+0  47211-4 0  9995
2 57970  43.0022 191.2548 0001692 274.8731  85.1927 15.27568710156939
STARLINK-30498          
1 57971U 23151H   26196.43404217  .00000300  00000+0  20440-4 0  9996
2 57971  43.0057 334.5263 0001565 272.6203  87.4470 15.27577584155300
STARLINK-30505          
1 57972U 23151J   26196.45717201  .00015509  00000+0  57175-3 0  9990
2 57972  42.9993 334.6917 0001356 223.3664 136.7081 15.27590663155306
STARLINK-30502          
1 57973U 23151K   26196.43018859  .00002351  00000+0  94960-4 0  9997
2 57973  43.0016 334.4958 0001151 192.4213 167.6610 15.27567307155307
STARLINK-30489          
1 57974U 23151L   26196.36994504  .00000929  00000+0  43299-4 0  9998
2 57974  43.0042 334.9115 0001651 281.9492  78.1175 15.27581153155290
STARLINK-30503          
1 57975U 23151M   26196.65974116  .00003329  00000+0  13043-3 0  9998
2 57975  43.0043 333.6212 0001477 269.9456  90.1227 15.27583232155335
STARLINK-30512          
1 57976U 23151N   26196.42761075  .00000234  00000+0  18011-4 0  9995
2 57976  43.0032 334.4288 0001133 273.2083  86.8639 15.27574323155306
STARLINK-30509          
1 57977U 23151P   26196.45533712  .00000511  00000+0  28090-4 0  9990
2 57977  43.0051 349.1195 0002060 261.8393  98.2225 15.27577883155138
STARLINK-30511          
1 57978U 23151Q   26196.46175110  .00000545  00000+0  29348-4 0  9990
2 57978  43.0108 349.1685 0003551 274.2051  85.8395 15.27580780155131
STARLINK-30508          
1 57979U 23151R   26196.46561431  .00004266  00000+0  16445-3 0  9993
2 57979  43.0029 349.1886 0001209 214.8040 145.2732 15.27582086155130
STARLINK-30510          
1 57981U 23151T   26196.50866042  .00001058  00000+0  47975-4 0  9996
2 57981  43.0029 352.0603 0001582 258.7027 101.3647 15.27583568155100
STARLINK-30507          
1 57982U 23151U   26195.53173259 -.00006029  00000+0 -20988-3 0  9999
2 57982  43.0020 357.6327 0002779 291.6607  68.3948 15.27549432154944
STARLINK-30515          
1 57983U 23151V   26196.45098120  .00000442  00000+0  25599-4 0  9990
2 57983  43.0041 352.4846 0001946 252.5008 107.5631 15.27583042155089
STARLINK-30516          
1 57984U 23151W   26196.45483918  .00001102  00000+0  49574-4 0  9997
2 57984  43.0010 352.5196 0001110 248.2332 111.8401 15.27581310155090
STARLINK-30519          
1 57985U 23151X   26196.47075366  .00001549  00000+0  65796-4 0  9993
2 57985  43.0038 349.2299 0001465 266.9560  93.1124 15.27575381155074
STARLINK-30537          
1 57991U 23153A   26196.03809829  .00001687  00000+0  70824-4 0  9994
2 57991  43.0019  67.7845 0002333 265.9536  94.1049 15.27588296154273
STARLINK-30534          
1 57992U 23153B   26196.02397229 -.00000070  00000+0  69926-5 0  9998
2 57992  43.0056  67.6718 0001063 257.5883 102.4849 15.27576969154279
STARLINK-30536          
1 57993U 23153C   26196.04195862 -.00000085  00000+0  64416-5 0  9995
2 57993  43.0051  67.8088 0001474 265.3708  94.6976 15.27577411154373
